{
  "type": "FeatureCollection",
  "features": [
    {
      "type": "Feature",
      "properties": {
        "norad_id": 30360,
        "name": "FENGYUN 1C DEB",
        "group": "fengyun-1c-debris",
        "lat": 29.14494529028794,
        "lon": 53.52688776351287,
        "alt_km": 809.9589471144345,
        "timestamp": "2025-12-14T20:40:32.047499+00:00",
        "meta_object_name": "FENGYUN 1C DEB",
        "meta_object_id": "1999-025ABX",
        "meta_epoch": "2025-12-14T03:57:33.921216",
        "meta_mean_motion": 14.26517314,
        "meta_eccentricity": 0.00312766,
        "meta_inclination": 98.7659,
        "meta_ra_of_asc_node": 57.7655,
        "meta_arg_of_pericenter": 142.7589,
        "meta_mean_anomaly": 272.3329,
        "meta_ephemeris_type": 0,
        "meta_classification_type": "U",
        "meta_norad_cat_id": 30360,
        "meta_element_set_no": 999,
        "meta_rev_at_epoch": 97445,
        "meta_bstar": 0.0018051324,
        "meta_mean_motion_dot": 4.331e-05,
        "meta_mean_motion_ddot": 0,
        "tle_line1": "1 30360U 99025ABX 25348.16497594  .00004331  00000+0  18051-2 0  9991",
        "tle_line2": "2 30360  98.7659  57.7655 0031276 142.7589 272.3329 14.26517314974459"
      },
      "geometry": {
        "type": "Point",
        "coordinates": [
          53.52688776351287,
          29.14494529028794
        ]
      }
    },
    {
      "type": "Feature",
      "properties": {
        "norad_id": 30361,
        "name": "FENGYUN 1C DEB",
        "group": "fengyun-1c-debris",
        "lat": 56.36841012355393,
        "lon": -142.1573658470335,
        "alt_km": 808.1687909214597,
        "timestamp": "2025-12-14T20:40:32.047508+00:00",
        "meta_object_name": "FENGYUN 1C DEB",
        "meta_object_id": "1999-025ABY",
        "meta_epoch": "2025-12-14T01:34:31.171584",
        "meta_mean_motion": 14.2536114,
        "meta_eccentricity": 0.0065166,
        "meta_inclination": 98.5695,
        "meta_ra_of_asc_node": 23.9633,
        "meta_arg_of_pericenter": 26.7736,
        "meta_mean_anomaly": 333.6784,
        "meta_ephemeris_type": 0,
        "meta_classification_type": "U",
        "meta_norad_cat_id": 30361,
        "meta_element_set_no": 999,
        "meta_rev_at_epoch": 97635,
        "meta_bstar": 0.0010667268,
        "meta_mean_motion_dot": 2.528e-05,
        "meta_mean_motion_ddot": 0,
        "tle_line1": "1 30361U 99025ABY 25348.06563856  .00002528  00000+0  10667-2 0  9997",
        "tle_line2": "2 30361  98.5695  23.9633 0065166  26.7736 333.6784 14.25361140976359"
      },
      "geometry": {
        "type": "Point",
        "coordinates": [
          -142.1573658470335,
          56.36841012355393
        ]
      }
    },
    {
      "type": "Feature",
      "properties": {
        "norad_id": 30362,
        "name": "FENGYUN 1C DEB",
        "group": "fengyun-1c-debris",
        "lat": 24.45352346159674,
        "lon": -92.47164114169838,
        "alt_km": 804.7450741406019,
        "timestamp": "2025-12-14T20:40:32.047518+00:00",
        "meta_object_name": "FENGYUN 1C DEB",
        "meta_object_id": "1999-025ABZ",
        "meta_epoch": "2025-12-14T05:15:10.812960",
        "meta_mean_motion": 14.11848327,
        "meta_eccentricity": 0.00957424,
        "meta_inclination": 99.0484,
        "meta_ra_of_asc_node": 271.0358,
        "meta_arg_of_pericenter": 339.6723,
        "meta_mean_anomaly": 20.0648,
        "meta_ephemeris_type": 0,
        "meta_classification_type": "U",
        "meta_norad_cat_id": 30362,
        "meta_element_set_no": 999,
        "meta_rev_at_epoch": 96189,
        "meta_bstar": 0.0031155232,
        "meta_mean_motion_dot": 5.896e-05,
        "meta_mean_motion_ddot": 0,
        "tle_line1": "1 30362U 99025ABZ 25348.21887515  .00005896  00000+0  31155-2 0  9992",
        "tle_line2": "2 30362  99.0484 271.0358 0095742 339.6723  20.0648 14.11848327961898"
      },
      "geometry": {
        "type": "Point",
        "coordinates": [
          -92.47164114169838,
          24.45352346159674
        ]
      }
    },
    {
      "type": "Feature",
      "properties": {
        "norad_id": 30363,
        "name": "FENGYUN 1C DEB",
        "group": "fengyun-1c-debris",
        "lat": -44.11321447399056,
        "lon": 68.90060951516027,
        "alt_km": 830.155723614087,
        "timestamp": "2025-12-14T20:40:32.047528+00:00",
        "meta_object_name": "FENGYUN 1C DEB",
        "meta_object_id": "1999-025ACA",
        "meta_epoch": "2025-12-14T03:56:13.210656",
        "meta_mean_motion": 14.16886415,
        "meta_eccentricity": 0.00790954,
        "meta_inclination": 99.0311,
        "meta_ra_of_asc_node": 59.3227,
        "meta_arg_of_pericenter": 35.1837,
        "meta_mean_anomaly": 325.4523,
        "meta_ephemeris_type": 0,
        "meta_classification_type": "U",
        "meta_norad_cat_id": 30363,
        "meta_element_set_no": 999,
        "meta_rev_at_epoch": 96844,
        "meta_bstar": 0.0015833821,
        "meta_mean_motion_dot": 3.229e-05,
        "meta_mean_motion_ddot": 0,
        "tle_line1": "1 30363U 99025ACA 25348.16404179  .00003229  00000+0  15834-2 0  9992",
        "tle_line2": "2 30363  99.0311  59.3227 0079095  35.1837 325.4523 14.16886415968444"
      },
      "geometry": {
        "type": "Point",
        "coordinates": [
          68.90060951516027,
          -44.11321447399056
        ]
      }
    },
    {
      "type": "Feature",
      "properties": {
        "norad_id": 30364,
        "name": "FENGYUN 1C DEB",
        "group": "fengyun-1c-debris",
        "lat": 79.00801724081879,
        "lon": -142.3985211787862,
        "alt_km": 971.4738487535496,
        "timestamp": "2025-12-14T20:40:32.047538+00:00",
        "meta_object_name": "FENGYUN 1C DEB",
        "meta_object_id": "1999-025ACB",
        "meta_epoch": "2025-12-14T05:46:56.235360",
        "meta_mean_motion": 14.17153553,
        "meta_eccentricity": 0.03322046,
        "meta_inclination": 98.1353,
        "meta_ra_of_asc_node": 264.4605,
        "meta_arg_of_pericenter": 316.0049,
        "meta_mean_anomaly": 199.4531,
        "meta_ephemeris_type": 0,
        "meta_classification_type": "U",
        "meta_norad_cat_id": 30364,
        "meta_element_set_no": 999,
        "meta_rev_at_epoch": 95662,
        "meta_bstar": 0.0036674983,
        "meta_mean_motion_dot": 0.0001271,
        "meta_mean_motion_ddot": 0,
        "tle_line1": "1 30364U 99025ACB 25348.24092865  .00012710  00000+0  36675-2 0  9998",
        "tle_line2": "2 30364  98.1353 264.4605 0332204 316.0049 199.4531 14.17153553956626"
      },
      "geometry": {
        "type": "Point",
        "coordinates": [
          -142.3985211787862,
          79.00801724081879
        ]
      }
    },
    {
      "type": "Feature",
      "properties": {
        "norad_id": 30365,
        "name": "FENGYUN 1C DEB",
        "group": "fengyun-1c-debris",
        "lat": -69.59502809921631,
        "lon": 7.247736885922172,
        "alt_km": 956.0817224826078,
        "timestamp": "2025-12-14T20:40:32.047548+00:00",
        "meta_object_name": "FENGYUN 1C DEB",
        "meta_object_id": "1999-025ACC",
        "meta_epoch": "2025-12-14T05:52:18.948864",
        "meta_mean_motion": 14.19231284,
        "meta_eccentricity": 0.01679975,
        "meta_inclination": 98.6191,
        "meta_ra_of_asc_node": 342.5852,
        "meta_arg_of_pericenter": 107.0947,
        "meta_mean_anomaly": 271.9327,
        "meta_ephemeris_type": 0,
        "meta_classification_type": "U",
        "meta_norad_cat_id": 30365,
        "meta_element_set_no": 999,
        "meta_rev_at_epoch": 97634,
        "meta_bstar": 0.00026282429,
        "meta_mean_motion_dot": 5.92e-06,
        "meta_mean_motion_ddot": 0,
        "tle_line1": "1 30365U 99025ACC 25348.24466376  .00000592  00000+0  26282-3 0  9990",
        "tle_line2": "2 30365  98.6191 342.5852 0167997 107.0947 271.9327 14.19231284976344"
      },
      "geometry": {
        "type": "Point",
        "coordinates": [
          7.247736885922172,
          -69.59502809921631
        ]
      }
    },
    {
      "type": "Feature",
      "properties": {
        "norad_id": 30366,
        "name": "FENGYUN 1C DEB",
        "group": "fengyun-1c-debris",
        "lat": 54.31419334363327,
        "lon": 99.05094976909578,
        "alt_km": 773.3648034519529,
        "timestamp": "2025-12-14T20:40:32.047558+00:00",
        "meta_object_name": "FENGYUN 1C DEB",
        "meta_object_id": "1999-025ACD",
        "meta_epoch": "2025-12-14T07:15:04.904640",
        "meta_mean_motion": 14.33494751,
        "meta_eccentricity": 0.00620772,
        "meta_inclination": 98.923,
        "meta_ra_of_asc_node": 265.8387,
        "meta_arg_of_pericenter": 214.6585,
        "meta_mean_anomaly": 265.7913,
        "meta_ephemeris_type": 0,
        "meta_classification_type": "U",
        "meta_norad_cat_id": 30366,
        "meta_element_set_no": 999,
        "meta_rev_at_epoch": 98345,
        "meta_bstar": 0.00064116596,
        "meta_mean_motion_dot": 1.764e-05,
        "meta_mean_motion_ddot": 0,
        "tle_line1": "1 30366U 99025ACD 25348.30214010  .00001764  00000+0  64117-3 0  9995",
        "tle_line2": "2 30366  98.9230 265.8387 0062077 214.6585 265.7913 14.33494751983456"
      },
      "geometry": {
        "type": "Point",
        "coordinates": [
          99.05094976909578,
          54.31419334363327
        ]
      }
    }
  ]
}